{
  "type": "FeatureCollection",
  "_notice": "Coordenadas APROXIMADAS - validar/corrigir via Editor (modo dev) ou substituir por dados oficiais (PMVR, OSM).",
  "features": [
    {
      "type": "Feature",
      "properties": {
        "id": "poi-001",
        "name": "Prefeitura Municipal de Volta Redonda",
        "layer": "poi",
        "category": "orgao publico",
        "description": "Sede do executivo municipal. Posicao aproximada - validar."
      },
      "geometry": {
        "type": "Point",
        "coordinates": [-44.1024, -22.5202]
      }
    },
    {
      "type": "Feature",
      "properties": {
        "id": "poi-002",
        "name": "UFF - Polo Volta Redonda",
        "layer": "poi",
        "category": "educacao",
        "description": "Universidade Federal Fluminense, campus Aterrado. Posicao aproximada - validar."
      },
      "geometry": {
        "type": "Point",
        "coordinates": [-44.0995, -22.5160]
      }
    },
    {
      "type": "Feature",
      "properties": {
        "id": "poi-003",
        "name": "Estacao Ferroviaria",
        "layer": "poi",
        "category": "transporte",
        "description": "Estacao historica do bairro Aterrado. Posicao aproximada - validar."
      },
      "geometry": {
        "type": "Point",
        "coordinates": [-44.1042, -22.5230]
      }
    },
    {
      "type": "Feature",
      "properties": {
        "id": "poi-004",
        "name": "Hospital Sao Joao Batista",
        "layer": "poi",
        "category": "saude",
        "description": "Hospital publico de referencia regional. Posicao aproximada - validar."
      },
      "geometry": {
        "type": "Point",
        "coordinates": [-44.1015, -22.5252]
      }
    },
    {
      "type": "Feature",
      "properties": {
        "id": "poi-005",
        "name": "Memorial Volta Redonda",
        "layer": "poi",
        "category": "cultura",
        "description": "Centro cultural e historico. Posicao aproximada - validar."
      },
      "geometry": {
        "type": "Point",
        "coordinates": [-44.1058, -22.5180]
      }
    },
    {
      "type": "Feature",
      "properties": {
        "id": "poi-006",
        "name": "Ilha Sao Joao",
        "layer": "poi",
        "category": "lazer",
        "description": "Area de lazer no Rio Paraiba do Sul. Posicao aproximada - validar."
      },
      "geometry": {
        "type": "Point",
        "coordinates": [-44.0805, -22.5120]
      }
    }
  ]
}
