{
  "type": "FeatureCollection",
  "_notice": "Tracado APROXIMADO - validar/corrigir via Editor (modo dev) ou substituir por hidrografia oficial (ANA, OSM).",
  "features": [
    {
      "type": "Feature",
      "properties": {
        "id": "wt-001",
        "name": "Rio Paraiba do Sul",
        "layer": "water",
        "category": "rio principal",
        "description": "Curso principal que atravessa o municipio. Tracado aproximado - validar com dados ANA."
      },
      "geometry": {
        "type": "LineString",
        "coordinates": [
          [-44.1480, -22.5345],
          [-44.1380, -22.5290],
          [-44.1255, -22.5235],
          [-44.1130, -22.5180],
          [-44.1010, -22.5135],
          [-44.0890, -22.5095],
          [-44.0760, -22.5060],
          [-44.0620, -22.5025],
          [-44.0480, -22.4990]
        ]
      }
    },
    {
      "type": "Feature",
      "properties": {
        "id": "wt-002",
        "name": "Corrego Cachoeirinha",
        "layer": "water",
        "category": "corrego",
        "description": "Afluente urbano. Tracado aproximado - validar."
      },
      "geometry": {
        "type": "LineString",
        "coordinates": [
          [-44.1080, -22.5340],
          [-44.1050, -22.5295],
          [-44.1020, -22.5250],
          [-44.0990, -22.5210],
          [-44.0985, -22.5175]
        ]
      }
    },
    {
      "type": "Feature",
      "properties": {
        "id": "wt-003",
        "name": "Corrego Brandao",
        "layer": "water",
        "category": "corrego",
        "description": "Curso d'agua urbano canalizado em parte do percurso. Tracado aproximado - validar."
      },
      "geometry": {
        "type": "LineString",
        "coordinates": [
          [-44.0900, -22.5360],
          [-44.0870, -22.5300],
          [-44.0850, -22.5250],
          [-44.0840, -22.5210],
          [-44.0830, -22.5180]
        ]
      }
    }
  ]
}
